ONEWEB-0235             
1 48771U 21045E   24328.39411460 -.00000553  00000+0 -15039-2 0  9990
2 48771  87.9081  12.8258 0001866  74.8904 285.2432 13.15549713169338
ONEWEB-0242             
1 48772U 21045F   24328.61594786 -.00000110  00000+0 -32737-3 0  9993
2 48772  87.9090  12.7671 0001939  89.6398 270.4955 13.15546337169402
ONEWEB-0241             
1 48773U 21045G   24328.67931666 -.00000024  00000+0 -97868-4 0  9993
2 48773  87.9098  12.8163 0001514  82.5534 277.5768 13.15548161169329
ONEWEB-0243             
1 48774U 21045H   24329.54765918 -.00000021  00000+0 -90385-4 0  9990
2 48774  87.9097  12.6044 0001981  80.1771 279.9583 13.15550199170596
ONEWEB-0222             
1 48775U 21045J   24328.61831125 -.00000125  00000+0 -36621-3 0  9999
2 48775  87.9088  12.7750 0001706  87.1481 272.9845 13.15546121169381
ONEWEB-0244             
1 48776U 21045K   24329.55715503  .00000036  00000+0  61402-4 0  9990
2 48776  87.9083  12.5688 0001943  91.7977 268.3376 13.15546866171195
ONEWEB-0247             
1 48777U 21045L   24329.55396344 -.00000424  00000+0 -11615-2 0  9991
2 48777  87.9090  12.6229 0002264  67.1730 292.9639 13.15547486169514
ONEWEB-0245             
1 48778U 21045M   24328.63653922 -.00000002  00000+0 -39767-4 0  9990
2 48778  87.9084  12.7841 0001558  91.3399 268.7909 13.15549827169369
